{
  "norad_id": 59436,
  "name": "STARLINK-31700",
  "history": [
    {
      "epoch": "2026-03-28T18:32:43.461600",
      "apogee_km": 476.2136375523369,
      "perigee_km": 474.22917909162334,
      "latitude_deg": -37.31721795927199,
      "longitude_deg": -162.21837599994615,
      "semi_major_axis_km": 6853.358408321979,
      "eccentricity": 0.00014478,
      "inclination_deg": 53.1613,
      "raan_deg": 192.8523,
      "arg_perigee_deg": 78.3656,
      "mean_anomaly_deg": 281.7508,
      "mean_motion_rev_day": 15.30197877
    }
  ]
}