{"fetched_at":"2026-03-30T06:02:59Z","count":15439,"tles":[{"name":"STARLINK-31700","line1":"1 59436U 24065R   26087.77272525  .00003324  00000+0  12432-3 0  9990","line2":"2 59436  53.1613 192.8523 0001447  78.3656 281.7508 15.30197877111854","category":"Starlink"}]}